FENGYUN 1C DEB          
1 31198U 99025BKC 26061.52036150  .00000109  00000+0  12936-3 0  9997
2 31198  98.6084 162.7659 0204941 136.9729 224.7654 13.75547304638503
FENGYUN 1C DEB          
1 31199U 99025BKD 26060.89549324  .00000430  00000+0  26254-3 0  9994
2 31199  98.7252  46.2351 0065239  36.0234 354.2246 14.10050315972758
FENGYUN 1C DEB          
1 31201U 99025BKF 26062.95673117  .00002758  00000+0  86754-3 0  9991
2 31201  98.9977 292.3605 0141781 112.7674  12.6311 14.35681231984161
FENGYUN 1C DEB          
1 31202U 99025BKG 26063.04781368  .00013114  00000+0  14657-2 0  9991
2 31202  96.5613  99.0541 0064724 263.3391 126.2600 14.85502897  2837
FENGYUN 1C DEB          
1 31205U 99025BKK 26062.72407372  .00000255  00000+0  11674-3 0  9997
2 31205  99.2227 164.8935 0161245 326.7468  32.3656 14.24020598983634
FENGYUN 1C DEB          
1 31206U 99025BKL 26062.54507082  .00002136  00000+0  65700-3 0  9996
2 31206  98.8429 338.1955 0077322 120.4835 240.4017 14.40907874990091
FENGYUN 1C DEB          
1 31208U 99025BKN 26061.40074794  .00015332  00000+0  28950-2 0  9998
2 31208  99.2419 219.6248 0011884  26.7487   4.0801 14.64504497716447
FENGYUN 1C DEB          
1 31209U 99025BKP 26054.08701081  .00010296  00000+0  29454-2 0  9995
2 31209  98.8783 157.3574 0024616 135.3303 224.9875 14.45062986658527
FENGYUN 1C DEB          
1 31210U 99025BKQ 26059.82600873  .00000612  00000+0  35698-3 0  9990
2 31210  98.7226  63.7089 0015816 298.0919 184.3405 14.12114995970698
FENGYUN 1C DEB          
1 31211U 99025BKR 26049.88369436  .00001708  00000+0  80720-3 0  9996
2 31211  98.6662  89.4439 0049745 250.3337 109.2468 14.20393222642602
FENGYUN 1C DEB          
1 31212U 99025BKS 26061.54529578  .00002577  00000+0  13581-2 0  9994
2 31212  99.2100 100.3772 0072225 307.6413  51.8220 14.13572104967866
FENGYUN 1C DEB          
1 31215U 99025BKV 26058.37416177  .00002382  00000+0  84145-3 0  9993
2 31215  99.0713 271.1784 0069406 100.5226 260.3786 14.34318709976244
FENGYUN 1C DEB          
1 31217U 99025BKX 26063.46427256  .00001875  00000+0  89708-3 0  9997
2 31217  98.6414  74.1327 0097737 285.6880  73.3530 14.17815032975062
FENGYUN 1C DEB          
1 31218U 99025BKY 26062.79235722  .00053797  00000+0  72538-2 0  9990
2 31218  98.8390 185.4311 0013539 158.7900 201.3872 14.78823757982787
FENGYUN 1C DEB          
1 31219U 99025BKZ 26063.50788162  .00003829  00000+0  19704-2 0  9999
2 31219  99.2801  81.4921 0077271 308.4644  50.9612 14.14324365967250
FENGYUN 1C DEB          
1 31222U 99025BLC 26063.66473971  .00018105  00000+0  11072-2 0  9992
2 31222  98.6035 147.1442 0162928 161.0781 199.6591 14.99820884 12105
FENGYUN 1C DEB          
1 31223U 99025BLD 26063.64663178  .00005438  00000+0  45030-2 0  9997
2 31223  99.0182 310.8472 0226533 184.4113 175.5046 13.78076969938565
FENGYUN 1C DEB          
1 31224U 99025BLE 26051.22434235  .00001223  00000+0  43840-3 0  9995
2 31224  98.3762  45.3903 0156556 318.3938  98.1639 14.29117464702437
FENGYUN 1C DEB          
1 31225U 99025BLF 26063.68446310  .00004133  00000+0  19420-2 0  9995
2 31225  98.9803 142.9215 0090563 119.3251  33.4530 14.18436811969831
FENGYUN 1C DEB          
1 31226U 99025BLG 26053.80152898  .00001088  00000+0  42573-3 0  9996
2 31226  98.3598  55.3711 0131014 345.5281  14.2163 14.26860554630814
FENGYUN 1C DEB          
1 31228U 99025BLJ 26063.46232698  .00001829  00000+0  60854-3 0  9993
2 31228  98.8699 342.7849 0077013 204.7204 218.0409 14.37262801987430
FENGYUN 1C DEB          
1 31229U 99025BLK 26063.15196611  .00004122  00000+0  18409-2 0  9991
2 31229  98.8591 143.8872 0053500  67.1492 293.5322 14.22472861972410
FENGYUN 1C DEB          
1 31231U 99025BLM 26063.69385303  .00053081  00000+0  59668-2 0  9991
2 31231  98.8638 235.9390 0137439 208.7610 150.5972 14.79824796642318
FENGYUN 1C DEB          
1 31234U 99025BLQ 26053.24350633  .00000371  00000+0  23673-3 0  9994
2 31234  98.7918  50.3586 0074357  26.3628 334.1295 14.08096384737262
FENGYUN 1C DEB          
1 31235U 99025BLR 26060.19995619  .00018555  00000+0  72993-2 0  9997
2 31235  98.4676 210.1302 0175166 155.7275 205.2281 14.21194488642805
FENGYUN 1C DEB          
1 31236U 99025BLS 26063.32074276  .00004685  00000+0  27768-2 0  9992
2 31236  98.5453  16.6500 0305355 183.0652 176.8644 13.87259096621550
FENGYUN 1C DEB          
1 31237U 99025BLT 26062.94756767  .00001721  00000+0  63261-3 0  9999
2 31237  98.4583  64.6963 0089909 107.7943 253.3075 14.31663736984281
FENGYUN 1C DEB          
1 31239U 99025BLV 26063.53934887  .00000821  00000+0  48471-3 0  9994
2 31239  98.7647  61.3241 0049105 328.7716 159.8502 14.09991018971640
FENGYUN 1C DEB          
1 31240U 99025BLW 26044.26735134  .00000962  00000+0  56879-3 0  9996
2 31240  98.7536  51.9768 0045266 198.6439 226.9875 14.09588209229782
FENGYUN 1C DEB          
1 31241U 99025BLX 26063.25820212  .00002040  00000+0  66080-3 0  9993
2 31241  99.2437 221.2987 0065267 303.3957  56.0995 14.39010346988633
FENGYUN 1C DEB          
1 31243U 99025BLZ 26062.89753657  .00001583  00000+0  94891-3 0  9994
2 31243  98.7407 105.5519 0063719 299.5163  59.9662 14.07399444704493
FENGYUN 1C DEB          
1 31244U 99025BMA 26056.40311349  .00000704  00000+0  43339-3 0  9998
2 31244  99.0230 124.8264 0101580 327.3456  32.1457 14.06373700586890
FENGYUN 1C DEB          
1 31247U 99025BMD 26062.67825552  .00000439  00000+0  29582-3 0  9992
2 31247  99.3610 318.4748 0057320 200.3092 216.8216 14.05348653966584
FENGYUN 1C DEB          
1 31248U 99025BME 26063.66149316  .00000670  00000+0  52304-3 0  9995
2 31248  99.2514 126.1234 0111383  90.1089  60.3110 13.92931096959640
FENGYUN 1C DEB          
1 31250U 99025BMG 26061.34897463  .00001578  00000+0  95469-3 0  9991
2 31250  98.3893 270.2366 0133577  72.2676 289.3021 14.03404131966349
FENGYUN 1C DEB          
1 31252U 99025BMJ 26062.83261921  .00002211  00000+0  54623-3 0  9994
2 31252  98.3126  84.4351 0211295 288.1188  69.7092 14.40512900983745
FENGYUN 1C DEB          
1 31253U 99025BMK 26061.64766034  .00000446  00000+0  21754-3 0  9995
2 31253  99.0618 131.5974 0288869 228.6187 128.9816 14.03704772701192
FENGYUN 1C DEB          
1 31254U 99025BML 26062.12125149  .00001383  00000+0  42781-3 0  9990
2 31254  98.4489 115.3904 0149846 323.0357  92.1523 14.36633795986706
FENGYUN 1C DEB          
1 31255U 99025BMM 26060.73554441  .00001115  00000+0  46928-3 0  9997
2 31255  99.3144 245.6578 0270847 123.2820 239.4610 14.09943457979142
FENGYUN 1C DEB          
1 31256U 99025BMN 26062.80807898  .00009476  00000+0  39232-2 0  9992
2 31256  98.6742 271.9867 0306033 246.4826 110.3914 14.04480977661198
FENGYUN 1C DEB          
1 31259U 99025BMR 26063.21306992  .00003570  00000+0  18142-2 0  9996
2 31259  99.0012 148.2086 0060861 324.6754  62.0901 14.15591590967228
FENGYUN 1C DEB          
1 31260U 99025BMS 26063.53694620  .00003717  00000+0  12536-2 0  9995
2 31260  98.9540 328.7388 0048508  50.7595  73.1062 14.36943553983680
FENGYUN 1C DEB          
1 31261U 99025BMT 26063.37037850  .00005672  00000+0  17622-2 0  9997
2 31261  99.0249  26.1345 0051248 353.5353   6.5167 14.40696261985259
FENGYUN 1C DEB          
1 31262U 99025BMU 26063.73758463  .00004384  00000+0  20966-2 0  9992
2 31262  98.9945 153.3700 0055919 220.8540 291.1754 14.18810179968719
FENGYUN 1C DEB          
1 31264U 99025BMW 26063.70639802  .00001324  00000+0  65901-3 0  9996
2 31264  99.1110 327.9316 0001637  52.7497 333.5127 14.18810046975919
FENGYUN 1C DEB          
1 31266U 99025BMY 26062.45860830  .00000965  00000+0  41601-3 0  9997
2 31266  99.2668  54.5663 0131112  54.6172 106.9193 14.22455483983538
FENGYUN 1C DEB          
1 31268U 99025BNA 26053.91970910  .00001053  00000+0  65429-3 0  9994
2 31268  98.7476  98.7632 0047679 342.0193  17.9288 14.06600169630471
FENGYUN 1C DEB          
1 31269U 99025BNB 26062.89354259  .00010510  00000+0  21296-2 0  9995
2 31269  98.1750 302.9821 0237915  28.1658  32.4246 14.45046352976585
FENGYUN 1C DEB          
1 31272U 99025BNE 26062.09947614  .00001203  00000+0  52310-3 0  9995
2 31272  99.0851 301.4962 0105085 243.2098 115.8300 14.23153557981328
FENGYUN 1C DEB          
1 31274U 99025BNG 26061.33507809  .00001279  00000+0  91864-3 0  9991
2 31274  99.0082 242.7075 0241136 254.5616 102.8790 13.85830467953098
FENGYUN 1C DEB          
1 31275U 99025BNH 26063.55879729  .00002162  00000+0  13614-2 0  9999
2 31275  98.9345 110.3855 0105320 125.5651 235.5388 14.02607030966331
FENGYUN 1C DEB          
1 31279U 99025BNM 26056.26326801  .00001206  00000+0  50381-3 0  9992
2 31279  98.5184  67.5230 0072695 320.9416  38.6529 14.26536228982917
FENGYUN 1C DEB          
1 31281U 99025BNP 26062.34193734  .00064865  00000+0  23065-2 0  9996
2 31281  98.3897 211.4693 0100175 177.6225 182.5506 15.24044904  9246
FENGYUN 1C DEB          
1 31282U 99025BNQ 26062.59660239  .00001173  00000+0  32795-3 0  9997
2 31282  99.2197 351.5225 0128631  48.1426 313.0656 14.43611307982872
FENGYUN 1C DEB          
1 31284U 99025BNS 26060.52015408  .00001227  00000+0  82217-3 0  9996
2 31284  99.7171 164.5335 0143687 206.0479 153.3402 13.98090695962632
FENGYUN 1C DEB          
1 31285U 99025BNT 26063.42265875  .00001294  00000+0  45542-3 0  9998
2 31285  98.5306  46.6915 0198620 308.2618 205.9554 14.26196093984638
FENGYUN 1C DEB          
1 31286U 99025BNU 26061.69762200  .00007891  00000+0  33578-2 0  9994
2 31286 100.8597 335.8289 0080146  60.7730 300.1426 14.23827111651572
FENGYUN 1C DEB          
1 31287U 99025BNV 26063.64773457  .00004599  00000+0  18385-2 0  9999
2 31287  99.3984 130.8821 0029407 184.8407 175.2492 14.28718752978551
FENGYUN 1C DEB          
1 31288U 99025BNW 26063.43183811  .00191302  00000+0  10990-1 0  9998
2 31288  98.7429 236.9370 0015710 342.3556  48.2546 15.11480995987843
